NORAD_CAT_ID,OBJECT_NAME,OBJECT_TYPE,EPOCH,MEAN_MOTION,ECCENTRICITY,INCLINATION,RA_OF_ASC_NODE,ARG_OF_PERICENTER,MEAN_ANOMALY,BSTAR,MEAN_MOTION_DOT,MEAN_MOTION_DDOT,TLE_LINE0,TLE_LINE1,TLE_LINE2,SEMIMAJOR_AXIS,PERIOD,APOGEE,PERIGEE,DECAYED
52106.0,STARLINK-3670,PAYLOAD,2023-07-24 00:45:02,15.08854143,0.0001187,53.2172,77.1937,103.1616,256.9509,9.6496e-05,1.249e-05,0.0,0 STARLINK-3670,1 52106U 22029U   23205.03127395  .00001249  00000-0  96496-4 0  9995,2 52106  53.2172  77.1937 0001187 103.1616 256.9509 15.08854143 75776,6917.837,95.437,540.523,538.881,0.0
52106.0,STARLINK-3670,PAYLOAD,2023-07-25 14:54:19,15.08831873,0.0001324,53.2166,70.0573,91.0838,269.0305,1.4093e-05,-6.4e-07,0.0,0 STARLINK-3670,1 52106U 22029U   23206.62105349 -.00000064  00000-0  14093-4 0  9994,2 52106  53.2166  70.0573 0001324  91.0838 269.0305 15.08831873 76013,6917.905,95.438,540.686,538.854,0.0
52106.0,STARLINK-3670,PAYLOAD,2023-07-26 00:26:37,15.08834381,0.0001251,53.2163,68.2731,86.0063,274.1072,2.701e-05,1.42e-06,0.0,0 STARLINK-3670,1 52106U 22029U   23207.01849336  .00000142  00000-0  27010-4 0  9998,2 52106  53.2163  68.2731 0001251  86.0063 274.1072 15.08834381 76079,6917.898,95.438,540.628,538.897,0.0
52106.0,STARLINK-3670,PAYLOAD,2023-07-27 00:17:23,15.08845831,0.0001178,53.2166,63.8127,94.0124,266.1002,0.00020003,2.898e-05,0.0,0 STARLINK-3670,1 52106U 22029U   23208.01208183  .00002898  00000-0  20003-3 0  9992,2 52106  53.2166  63.8127 0001178  94.0124 266.1002 15.08845831 76220,6917.863,95.437,540.542,538.913,0.0
52106.0,STARLINK-3670,PAYLOAD,2023-07-27 14:35:53,15.08834949,0.0001519,53.2161,61.1347,96.7025,263.414,3.3926e-05,2.52e-06,0.0,0 STARLINK-3670,1 52106U 22029U   23208.60825540  .00000252  00000-0  33926-4 0  9990,2 52106  53.2161  61.1347 0001519  96.7025 263.4140 15.08834949 76319,6917.896,95.438,540.812,538.71,0.0
52106.0,STARLINK-3670,PAYLOAD,2023-07-27 20:57:26,15.08829261,0.0001031,53.2182,59.9457,104.865,255.2456,-1.8593e-05,-5.84e-06,0.0,0 STARLINK-3670,1 52106U 22029U   23208.87322193 -.00000584  00000-0 -18593-4 0  9998,2 52106  53.2182  59.9457 0001031 104.8650 255.2456 15.08829261 76357,6917.913,95.438,540.491,539.065,0.0
52106.0,STARLINK-3670,PAYLOAD,2023-07-28 00:08:12,15.08827711,0.0001123,53.2174,59.3526,95.7444,264.3676,-1.2677e-05,-4.89e-06,0.0,0 STARLINK-3670,1 52106U 22029U   23209.00570456 -.00000489  00000-0 -12677-4 0  9992,2 52106  53.2174  59.3526 0001123  95.7444 264.3676 15.08827711 76375,6917.918,95.438,540.56,539.006,0.0
52106.0,STARLINK-3670,PAYLOAD,2023-07-28 14:26:40,15.088257,9.36e-05,53.219,56.6757,106.7042,253.4053,0.00011622,1.562e-05,0.0,0 STARLINK-3670,1 52106U 22029U   23209.60185892  .00001562  00000-0  11622-3 0  9993,2 52106  53.2190  56.6757 0000936 106.7042 253.4053 15.08825700 76461,6917.924,95.438,540.437,539.142,0.0
52106.0,STARLINK-3670,PAYLOAD,2023-07-28 23:58:59,15.08835159,9.35e-05,53.2177,54.892,106.9012,253.2083,0.00018767,2.7e-05,0.0,0 STARLINK-3670,1 52106U 22029U   23209.99929463  .00002700  00000-0  18767-3 0  9997,2 52106  53.2177  54.8920 0000935 106.9012 253.2083 15.08835159 76523,6917.895,95.438,540.407,539.113,0.0
52106.0,STARLINK-3670,PAYLOAD,2023-07-30 18:54:23,15.08841097,9.88e-05,53.2174,46.8641,95.3683,264.7422,1.4525e-05,-5.7e-07,0.0,0 STARLINK-3670,1 52106U 22029U   23211.78777738 -.00000057  00000-0  14525-4 0  9996,2 52106  53.2174  46.8641 0000988  95.3683 264.7422 15.08841097 76795,6917.877,95.437,540.426,539.059,0.0
52106.0,STARLINK-3670,PAYLOAD,2023-07-31 20:20:33,15.08845754,0.0001025,53.2175,42.1046,88.0292,272.0818,6.8466e-05,8.02e-06,0.0,0 STARLINK-3670,1 52106U 22029U   23212.84761547  .00000802  00000-0  68466-4 0  9995,2 52106  53.2175  42.1046 0001025  88.0292 272.0818 15.08845754 76955,6917.863,95.437,540.437,539.019,0.0
52106.0,STARLINK-3670,PAYLOAD,2023-08-01 18:35:58,15.08841017,9.43e-05,53.2175,37.9423,88.0606,272.0494,6.8278e-05,7.99e-06,0.0,0 STARLINK-3670,1 52106U 22029U   23213.77498089  .00000799  00000-0  68278-4 0  9992,2 52106  53.2175  37.9423 0000943  88.0606 272.0494 15.08841017 77097,6917.877,95.437,540.395,539.09,0.0
52106.0,STARLINK-3670,PAYLOAD,2023-08-02 18:26:44,15.08852639,9.06e-05,53.2172,33.4811,96.2489,263.8606,0.00010977,1.46e-05,0.0,0 STARLINK-3670,1 52106U 22029U   23214.76857220  .00001460  00000-0  10977-3 0  9996,2 52106  53.2172  33.4811 0000906  96.2489 263.8606 15.08852639 77247,6917.842,95.437,540.334,539.08,0.0
52106.0,STARLINK-3670,PAYLOAD,2023-08-03 18:17:32,15.0884389,9.64e-05,53.2178,29.0196,90.6256,269.4847,8.4746e-05,1.061e-05,0.0,0 STARLINK-3670,1 52106U 22029U   23215.76217805  .00001061  00000-0  84746-4 0  9999,2 52106  53.2178  29.0196 0000964  90.6256 269.4847 15.08843890 77398,6917.868,95.437,540.4,539.067,0.0
52106.0,STARLINK-3670,PAYLOAD,2023-08-04 18:08:19,15.08840888,8.89e-05,53.2186,24.5618,73.9342,286.1748,8.1893e-05,1.016e-05,0.0,0 STARLINK-3670,1 52106U 22029U   23216.75578044  .00001016  00000-0  81893-4 0  9994,2 52106  53.2186  24.5618 0000889  73.9342 286.1748 15.08840888 77549,6917.878,95.437,540.358,539.128,0.0
52106.0,STARLINK-3670,PAYLOAD,2023-08-05 17:59:05,15.08852306,0.0001543,53.2189,20.1022,109.1841,250.9318,0.00026925,4.001e-05,0.0,0 STARLINK-3670,1 52106U 22029U   23217.74937328  .00004001  00000-0  26925-3 0  9999,2 52106  53.2189  20.1022 0001543 109.1841 250.9318 15.08852306 77693,6917.843,95.437,540.775,538.64,0.0
52106.0,STARLINK-3670,PAYLOAD,2023-08-06 11:28:21,15.08827653,0.0001182,53.2188,16.8312,97.0057,263.107,-8.9832e-05,-1.717e-05,0.0,0 STARLINK-3670,1 52106U 22029U   23218.47802873 -.00001717  00000-0 -89832-4 0  9996,2 52106  53.2188  16.8312 0001182  97.0057 263.1070 15.08827653 77800,6917.918,95.438,540.601,538.965,0.0
52106.0,STARLINK-3670,PAYLOAD,2023-08-06 17:49:54,15.08815645,9.53e-05,53.2183,15.6406,82.3321,277.778,-0.00025011,-4.263e-05,0.0,0 STARLINK-3670,1 52106U 22029U   23218.74299699 -.00004263  00000-0 -25011-3 0  9999,2 52106  53.2183  15.6406 0000953  82.3321 277.7780 15.08815645 77843,6917.955,95.439,540.479,539.161,0.0
52106.0,STARLINK-3670,PAYLOAD,2023-08-07 11:19:09,15.0882908,9.2e-05,53.2175,12.3684,74.2949,285.8145,-7.5504e-05,-1.489e-05,0.0,0 STARLINK-3670,1 52106U 22029U   23219.47163977 -.00001489  00000-0 -75504-4 0  9999,2 52106  53.2175  12.3684 0000920  74.2949 285.8145 15.08829080 77951,6917.914,95.438,540.415,539.142,0.0
52106.0,STARLINK-3670,PAYLOAD,2023-08-07 17:40:42,15.08836873,9.68e-05,53.218,11.1795,75.8492,284.2608,8.875e-05,1.125e-05,0.0,0 STARLINK-3670,1 52106U 22029U   23219.73659822  .00001125  00000-0  88750-4 0  9999,2 52106  53.2180  11.1795 0000968  75.8492 284.2608 15.08836873 77998,6917.89,95.438,540.425,539.085,0.0
52106.0,STARLINK-3670,PAYLOAD,2023-08-08 09:34:33,15.08852179,9.92e-05,53.2175,8.2058,63.9737,296.1357,0.0007956,0.00012401,0.0,0 STARLINK-3670,1 52106U 22029U   23220.39900010  .00012401  00000-0  79560-3 0  9998,2 52106  53.2175   8.2058 0000992  63.9737 296.1357 15.08852179 78090,6917.843,95.437,540.394,539.022,0.0
52106.0,STARLINK-3670,PAYLOAD,2023-08-08 19:06:51,15.08877164,0.0001029,53.2172,6.4219,62.9197,297.19,0.0010909,0.00017134,0.0,0 STARLINK-3670,1 52106U 22029U   23220.79642994  .00017134  00000-0  10909-2 0  9995,2 52106  53.2172   6.4219 0001029  62.9197 297.1900 15.08877164 78150,6917.767,95.435,540.344,538.92,0.0
52106.0,STARLINK-3670,PAYLOAD,2023-08-09 09:25:19,15.08863284,0.0001971,53.2161,3.7455,83.3429,276.7787,0.00048148,7.388e-05,0.0,0 STARLINK-3670,1 52106U 22029U   23221.39258771  .00007388  00000-0  48148-3 0  9995,2 52106  53.2161   3.7455 0001971  83.3429 276.7787 15.08863284 78245,6917.809,95.436,541.038,538.311,0.0
52106.0,STARLINK-3670,PAYLOAD,2023-08-10 09:16:06,15.08846749,0.0001046,53.2166,359.2859,64.4779,295.6321,0.00078802,0.00012278,0.0,0 STARLINK-3670,1 52106U 22029U   23222.38619021  .00012278  00000-0  78802-3 0  9998,2 52106  53.2166 359.2859 0001046  64.4779 295.6321 15.08846749 78395,6917.86,95.437,540.448,539.001,0.0
52106.0,STARLINK-3670,PAYLOAD,2023-08-10 18:48:25,15.08843454,0.000107,53.2172,357.5003,81.735,278.3763,0.00037583,5.699e-05,0.0,0 STARLINK-3670,1 52106U 22029U   23222.78362994  .00005699  00000-0  37583-3 0  9996,2 52106  53.2172 357.5003 0001070  81.7350 278.3763 15.08843454 78453,6917.87,95.437,540.475,538.995,0.0
52106.0,STARLINK-3670,PAYLOAD,2023-08-11 09:06:53,15.08841161,0.0001181,53.2167,354.8242,79.8917,280.2208,0.00022779,3.339e-05,0.0,0 STARLINK-3670,1 52106U 22029U   23223.37979147  .00003339  00000-0  22779-3 0  9996,2 52106  53.2167 354.8242 0001181  79.8917 280.2208 15.08841161 78541,6917.877,95.437,540.559,538.925,0.0
52106.0,STARLINK-3670,PAYLOAD,2023-08-12 18:29:59,15.08849815,0.000108,53.2167,348.58,77.3481,282.7632,0.00023166,3.402e-05,0.0,0 STARLINK-3670,1 52106U 22029U   23224.77082594  .00003402  00000-0  23166-3 0  9994,2 52106  53.2167 348.5800 0001080  77.3481 282.7632 15.08849815 78753,6917.85,95.437,540.463,538.968,0.0
52106.0,STARLINK-3670,PAYLOAD,2023-08-13 08:48:27,15.08836478,0.0001412,53.219,345.9057,92.8581,267.2573,-9.6686e-05,-1.826e-05,0.0,0 STARLINK-3670,1 52106U 22029U   23225.36699061 -.00001826  00000-0 -96686-4 0  9991,2 52106  53.2190 345.9057 0001412  92.8581 267.2573 15.08836478 78849,6917.891,95.438,540.733,538.779,0.0
52106.0,STARLINK-3670,PAYLOAD,2023-08-14 11:50:01,15.08845043,0.0001392,53.2202,340.8509,98.1861,261.9289,0.00018825,2.71e-05,0.0,0 STARLINK-3670,1 52106U 22029U   23226.49307078  .00002710  00000-0  18825-3 0  9999,2 52106  53.2202 340.8509 0001392  98.1861 261.9289 15.08845043 79019,6917.865,95.437,540.693,538.767,0.0
52106.0,STARLINK-3670,PAYLOAD,2023-08-15 08:30:02,15.08841044,0.0001314,53.2198,336.9854,95.1294,264.9848,0.00018918,2.724e-05,0.0,0 STARLINK-3670,1 52106U 22029U   23227.35419366  .00002724  00000-0  18918-3 0  9997,2 52106  53.2198 336.9854 0001314  95.1294 264.9848 15.08841044 79148,6917.877,95.437,540.651,538.833,0.0
